FLOCK 3P-7              
1 41970U 17008Y   17146.93203443  .00002763  00000-0  12292-3 0  9991
2 41970  97.4972 208.3238 0006746 266.9656  93.0808 15.22331175 15149
FLOCK 3P-5              
1 41971U 17008Z   17146.93854228  .00002862  00000-0  12751-3 0  9995
2 41971  97.4973 208.3168 0006702 266.2167  93.8303 15.22245837 15074
FLOCK 3P-12             
1 41972U 17008AA  17146.93753394  .00004348  00000-0  19205-3 0  9990
2 41972  97.4971 208.3179 0006518 266.0727  93.9764 15.22248786 15225
FLOCK 3P-9              
1 41973U 17008AB  17146.87489443  .00004629  00000-0  20434-3 0  9993
2 41973  97.4973 208.2505 0006722 264.3865  95.6604 15.22234425 15217
FLOCK 3P-10             
1 41974U 17008AC  17146.93579366  .00004913  00000-0  21616-3 0  9994
2 41974  97.4974 208.3232 0006532 265.6607  94.3882 15.22321652 15116
FLOCK 3P-11             
1 41975U 17008AD  17146.94261154  .00004822  00000-0  21319-3 0  9998
2 41975  97.4973 208.3133 0006810 265.2825  94.7633 15.22161527 15114
FLOCK 3P-60             
1 41976U 17008AE  17146.92706146  .00002858  00000-0  12680-3 0  9990
2 41976  97.4975 208.3347 0006424 267.4288  92.6213 15.22392635 14477
FLOCK 3P-58             
1 41977U 17008AF  17146.93710199  .00003960  00000-0  17526-3 0  9994
2 41977  97.4973 208.3192 0006483 265.9552  94.0943 15.22241366 15309
FLOCK 3P-57             
1 41978U 17008AG  17146.93554060  .00003723  00000-0  16450-3 0  9990
2 41978  97.4972 208.3222 0006634 264.4300  95.6179 15.22330968 15143
FLOCK 3P-75             
1 41979U 17008AH  17146.93513676  .00004346  00000-0  19160-3 0  9992
2 41979  97.4994 208.3566 0006849 268.3722  91.6729 15.22312130 15292
FLOCK 3P-70             
1 41980U 17008AJ  17146.93461613  .00004797  00000-0  21103-3 0  9997
2 41980  97.4994 208.3583 0006811 267.4743  92.5714 15.22332587 15141
FLOCK 3P-73             
1 41981U 17008AK  17146.93667965  .00004812  00000-0  21227-3 0  9991
2 41981  97.4995 208.3555 0006969 268.4629  91.5809 15.22237401 15277
FLOCK 3P-88             
1 41982U 17008AL  17146.93288473  .00004979  00000-0  21885-3 0  9999
2 41982  97.4992 208.3566 0006808 268.2137  91.8320 15.22346923 14248
FLOCK 3P-85             
1 41983U 17008AM  17146.92177657  .00002719  00000-0  12070-3 0  9996
2 41983  97.4995 208.3730 0006748 273.4217  86.6247 15.22421794 15145
FLOCK 3P-79             
1 41984U 17008AN  17146.92263744  .00001825  00000-0  82031-4 0  9992
2 41984  97.4999 208.3713 0006426 273.6990  86.3512 15.22419705 15145
FLOCK 3P-86             
1 41985U 17008AP  17146.92358512  .00002986  00000-0  13218-3 0  9990
2 41985  97.4993 208.3685 0006359 272.2201  87.8307 15.22432531 15132
FLOCK 3P-36             
1 41986U 17008AQ  17146.92734562  .00004853  00000-0  21298-3 0  9996
2 41986  97.4975 208.3353 0005981 267.6679  92.3872 15.22414040 14628
FLOCK 3P-30             
1 41987U 17008AR  17146.91910121  .00003367  00000-0  14837-3 0  9993
2 41987  97.4977 208.3472 0006033 271.2109  88.8436 15.22495150 15090
FLOCK 3P-34             
1 41988U 17008AS  17146.86393184  .00002907  00000-0  12895-3 0  9993
2 41988  97.4973 208.2638 0006150 265.3246  94.7287 15.22388043 14615
FLOCK 3P-35             
1 41989U 17008AT  17146.93102063  .00002813  00000-0  12497-3 0  9990
2 41989  97.4973 208.3274 0006302 264.8344  95.2173 15.22365358 14620
FLOCK 3P-33             
1 41990U 17008AU  17146.86053800  .00004132  00000-0  18188-3 0  9997
2 41990  97.4974 208.2695 0005906 267.8320  92.2240 15.22400660 14612
LEMUR-2-SATCHMO         
1 41991U 17008AV  17146.93309245  .00001450  00000-0  66430-4 0  9997
2 41991  97.4977 208.3261 0006298 271.1921  88.8593 15.22085048 14628
LEMUR-2-MIA-GRACE       
1 41992U 17008AW  17146.92651156  .00002096  00000-0  94185-4 0  9993
2 41992  97.4979 208.3365 0006206 271.5075  88.5450 15.22257507 14629
LEMUR-2-SMITA-SHARAD    
1 41993U 17008AX  17146.92957537  .00001923  00000-0  86877-4 0  9993
2 41993  97.4977 208.3316 0006178 271.1878  88.8650 15.22176750 14624
LEMUR-2-SPIRE-MINIONS   
1 41994U 17008AY  17146.92933698  .00002677  00000-0  11962-3 0  9995
2 41994  97.4974 208.3310 0006134 270.3928  89.6605 15.22201518 14625
LEMUR-2-RDEATON         
1 41995U 17008AZ  17146.92773366  .00001897  00000-0  85688-4 0  9990
2 41995  97.4978 208.3349 0007281 287.3307  72.7132 15.22204444 15300
LEMUR-2-NOGUECORREIG    
1 41996U 17008BA  17146.85820379  .00002123  00000-0  95241-4 0  9999
2 41996  97.4979 208.2746 0007247 288.1675  71.8771 15.22296777 14512
LEMUR-2-JOBANPUTRA      
1 41997U 17008BB  17146.91998233  .00002601  00000-0  11565-3 0  9999
2 41997  97.4975 208.3461 0007041 287.7139  72.3328 15.22398480 14615
LEMUR-2-TACHIKOMA       
1 41998U 17008BC  17146.92599661  .00001634  00000-0  74220-4 0  9996
2 41998  97.4978 208.3369 0007281 288.6277  71.4168 15.22201649 14549
BGUSAT                  
1 41999U 17008BD  17146.91676733  .00002477  00000-0  11009-3 0  9993
2 41999  97.4979 208.3533 0007054 289.8039  70.2437 15.22462316 14615
DIDO-2                  
1 42000U 17008BE  17146.86124020  .00001265  00000-0  58266-4 0  9999
2 42000  97.4977 208.2701 0007269 289.6069  70.4382 15.22148033 14610
FLOCK 3P-49             
1 42001U 17008BF  17146.91394026  .00001651  00000-0  74366-4 0  9999
2 42001  97.4979 208.3513 0006742 289.9781  70.0729 15.22475937 15140
FLOCK 3P-67             
1 42002U 17008BG  17146.91849423  .00001240  00000-0  56707-4 0  9999
2 42002  97.4977 208.3436 0006649 288.7247  71.3267 15.22421415 15304
FLOCK 3P-68             
1 42003U 17008BH  17146.85373208  .00004013  00000-0  17674-3 0  9996
2 42003  97.4971 208.2761 0006715 288.0019  72.0485 15.22400730 14938
FLOCK 3P-41             
1 42004U 17008BJ  17146.91073896  .00001397  00000-0  63375-4 0  9996
2 42004  97.4975 208.3491 0006553 291.9540  68.0999 15.22491086 15149
FLOCK 3P-45             
1 42005U 17008BK  17146.91424900  .00001503  00000-0  68020-4 0  9994
2 42005  97.4977 208.3488 0006587 290.0165  70.0362 15.22462281 15308
FLOCK 3P-48             
1 42006U 17008BL  17146.91286207  .00002783  00000-0  12330-3 0  9994
2 42006  97.4975 208.3518 0006446 291.7472  68.3078 15.22461641 15082
FLOCK 3P-43             
1 42007U 17008BM  17146.91092720  .00001417  00000-0  64267-4 0  9990
2 42007  97.4976 208.3512 0006387 291.9099  68.1458 15.22479940 15305
FLOCK 3P-42             
1 42008U 17008BN  17146.91093112  .00001329  00000-0  60478-4 0  9999
2 42008  97.4974 208.3496 0006397 291.5940  68.4614 15.22470174 15225
FLOCK 3P-61             
1 42009U 17008BP  17146.90834443  .00001291  00000-0  58867-4 0  9996
2 42009  97.4976 208.3535 0006387 294.6050  65.4520 15.22461835 15279
FLOCK 3P-40             
1 42010U 17008BQ  17146.90441212  .00001349  00000-0  61245-4 0  9994
2 42010  97.4970 208.3530 0006249 295.4115  64.6474 15.22524573 14534
FLOCK 3P-16             
1 42011U 17008BR  17146.89843444  .00002069  00000-0  91931-4 0  9991
2 42011  97.4968 208.3629 0005949 296.1900  63.8724 15.22670026 14474
FLOCK 3P-14             
1 42012U 17008BS  17146.89916774  .00001352  00000-0  61265-4 0  9990
2 42012  97.4975 208.3644 0006110 298.6757  61.3864 15.22601733 15094
FLOCK 3P-53             
1 42013U 17008BT  17146.90157526  .00001429  00000-0  64663-4 0  9995
2 42013  97.4968 208.3529 0006055 297.1104  62.9514 15.22557069 15098
FLOCK 3P-54             
1 42014U 17008BU  17146.89965394  .00001373  00000-0  62176-4 0  9999
2 42014  97.4971 208.3587 0005968 297.8772  62.1860 15.22591205 15307
PEASSS                  
1 42015U 17008BV  17146.88857376  .00001461  00000-0  65632-4 0  9997
2 42015  97.4967 208.3705 0005207 302.5389  57.5344 15.22758250 15107
AL-FARABI 1             
1 42016U 17008BW  17146.88422382  .00001827  00000-0  81042-4 0  9992
2 42016  97.4969 208.3790 0005092 303.4868  56.5881 15.22870956 15224
NAYIF-1 (EO-88)         
1 42017U 17008BX  17146.94902813  .00001849  00000-0  81956-4 0  9990
2 42017  97.4969 208.4454 0005080 303.7036  56.3716 15.22886032 15250
FLOCK 3P-23             
1 42018U 17008BY  17146.88350048  .00004159  00000-0  18438-3 0  9992
2 42018  97.4964 208.2271 0007166 262.9022  97.1399 15.22146008 14069
FLOCK 3P-76             
1 42019U 17008BZ  17146.93002492  .00002621  00000-0  11650-3 0  9997
2 42019  97.4997 208.3657 0006741 270.8599  89.1864 15.22405396 15135
FLOCK 3P-69             
1 42020U 17008CA  17146.86229671  .00004241  00000-0  18645-3 0  9992
2 42020  97.4996 208.3021 0006638 269.4657  90.5819 15.22430007 14014
FLOCK 3P-84             
1 42021U 17008CB  17146.93550556  .00004970  00000-0  21862-3 0  9994
2 42021  97.4992 208.3536 0006950 268.3215  91.7225 15.22320650 15148
FLOCK 3P-59             
1 42022U 17008CC  17146.93120912  .00002791  00000-0  12421-3 0  9994
2 42022  97.4974 208.3277 0006520 268.9661  91.0828 15.22301135 14165
FLOCK 3P-32             
1 42023U 17008CD  17146.93500793  .00004036  00000-0  17831-3 0  9998
2 42023  97.4973 208.3247 0006409 264.0234  96.0271 15.22292893 15305
FLOCK 3P-71             
1 42024U 17008CE  17146.87023908  .00003444  00000-0  15294-3 0  9993
2 42024  97.4997 208.2920 0006849 269.1586  90.8865 15.22214715 14164
FLOCK 3P-77             
1 42025U 17008CF  17146.93096971  .00004455  00000-0  19608-3 0  9997
2 42025  97.4994 208.3608 0006640 270.9145  89.1330 15.22356281 15148
FLOCK 3P-80             
1 42026U 17008CG  17146.91856270  .00002235  00000-0  99404-4 0  9999
2 42026  97.4997 208.3748 0006365 273.1673  86.8835 15.22541206 13282
FLOCK 3P-66             
1 42027U 17008CH  17146.91939118  .00003227  00000-0  14271-3 0  9993
2 42027  97.4975 208.3447 0006674 287.2265  72.8240 15.22409879 15254
FLOCK 3P-65             
1 42028U 17008CJ  17146.91786417  .00003020  00000-0  13357-3 0  9991
2 42028  97.4975 208.3468 0006624 287.3259  72.7252 15.22454163 15154
